OBJECT_NAME,OBJECT_ID,EPOCH,MEAN_MOTION,ECCENTRICITY,INCLINATION,RA_OF_ASC_NODE,ARG_OF_PERICENTER,MEAN_ANOMALY,EPHEMERIS_TYPE,CLASSIFICATION_TYPE,NORAD_CAT_ID,ELEMENT_SET_NO,REV_AT_EPOCH,BSTAR,MEAN_MOTION_DOT,MEAN_MOTION_DDOT
ECHOSTAR 25,2026-045A,2026-06-13T16:03:04.612896,1.00271262,.00014525,0.0182,7.1108,79.3990,306.2441,0,U,68126,999,95,0,-.46E-6,0
