ECHOSTAR 25             
1 68126U 26045A   26164.66880339 -.00000046  00000+0  00000+0 0  9991
2 68126   0.0182   7.1108 0001452  79.3990 306.2441  1.00271262   957
